{"spaceTrack": {"CCSDS_OMM_VERS": "2.0", "COMMENT": "GENERATED VIA SPACE-TRACK.ORG API", "CREATION_DATE": "2022-06-22T07:56:12", "ORIGINATOR": "18 SPCS", "OBJECT_NAME": "STARLINK-4071", "OBJECT_ID": "2022-053R", "CENTER_NAME": "EARTH", "REF_FRAME": "TEME", "TIME_SYSTEM": "UTC", "MEAN_ELEMENT_THEORY": "SGP4", "EPOCH": "2022-06-22T06:00:00.999648", "MEAN_MOTION": 15.49804333, "ECCENTRICITY": 0.0001472, "INCLINATION": 53.2165, "RA_OF_ASC_NODE": 127.3321, "ARG_OF_PERICENTER": 71.5179, "MEAN_ANOMALY": 8.5952, "EPHEMERIS_TYPE": 0, "CLASSIFICATION_TYPE": "U", "NORAD_CAT_ID": 52671, "ELEMENT_SET_NO": 999, "REV_AT_EPOCH": 577, "BSTAR": 0.0035729, "MEAN_MOTION_DOT": 0.00207197, "MEAN_MOTION_DDOT": 0, "SEMIMAJOR_AXIS": 6795.435, "PERIOD": 92.915, "APOAPSIS": 418.3, "PERIAPSIS": 416.3, "OBJECT_TYPE": "PAYLOAD", "RCS_SIZE": "LARGE", "COUNTRY_CODE": "US", "LAUNCH_DATE": "2022-05-18", "SITE": "AFETR", "DECAY_DATE": null, "DECAYED": 0, "FILE": 3499508, "GP_ID": 206591258, "TLE_LINE0": "0 STARLINK-4071", "TLE_LINE1": "1 52671U 22053R   22173.25001157  .00207197  00000-0  35729-2 0  9993", "TLE_LINE2": "2 52671  53.2165 127.3321 0001472  71.5179   8.5952 15.49804333  5776"}, "height_km": 417.45156702421536, "latitude": 23.58249034779956, "launch": "62615ebc0ec008379be596fa", "longitude": 141.8793037277545, "velocity_kms": 7.664103764160878, "version": "v1.5", "id": "628ea116a8973c1694df189b"}